CCSDS_OMM_VERS,COMMENT,CREATION_DATE,ORIGINATOR,OBJECT_NAME,OBJECT_ID,CENTER_NAME,REF_FRAME,TIME_SYSTEM,MEAN_ELEMENT_THEORY,EPOCH,MEAN_MOTION,ECCENTRICITY,INCLINATION,RA_OF_ASC_NODE,ARG_OF_PERICENTER,MEAN_ANOMALY,EPHEMERIS_TYPE,CLASSIFICATION_TYPE,NORAD_CAT_ID,ELEMENT_SET_NO,REV_AT_EPOCH,BSTAR,MEAN_MOTION_DOT,MEAN_MOTION_DDOT,SEMIMAJOR_AXIS,PERIOD,APOAPSIS,PERIAPSIS,OBJECT_TYPE,RCS_SIZE,COUNTRY_CODE,LAUNCH_DATE,SITE,DECAY_DATE,FILE,GP_ID,TLE_LINE0,TLE_LINE1,TLE_LINE2
"3.0","GENERATED VIA SPACE-TRACK.ORG API","2025-03-24T02:21:51","18 SPCS","COSMOS 2251 DEB","1993-036AEB","EARTH","TEME","UTC","SGP4","2025-03-23T18:41:56.576256","15.65094270","0.00283170","73.9718","207.2955","333.6507","26.3271","0","U","34948","999","84128","0.02199500000000","0.02517199","0.0000000000000","6751.105","92.007","392.087","353.853","DEBRIS","SMALL","CIS","1993-06-16","PKMTR","2025-03-29","4678815","283875282","0 COSMOS 2251 DEB","1 34948U 93036AEB 25082.77912704  .02517199  00000-0  21995-1 0  9994","2 34948  73.9718 207.2955 0028317 333.6507  26.3271 15.65094270841286"
"3.0","GENERATED VIA SPACE-TRACK.ORG API","2025-03-24T06:26:21","18 SPCS","KEPLER-11 (DANEEL)","2021-006CU","EARTH","TEME","UTC","SGP4","2025-03-23T22:06:17.641728","16.25945445","0.00068760","97.2577","153.0744","249.3158","110.7397","0","U","47503","999","23201","0.00092607000000","0.02816806","0.0000023868000","6581.596","88.564","207.986","198.935","PAYLOAD","MEDIUM","CA","2021-01-24","AFETR","2025-03-29","4678874","283893905","0 KEPLER-11 (DANEEL)","1 47503U 21006CU  25082.92103752  .02816806  23868-5  92607-3 0  9994","2 47503  97.2577 153.0744 0006876 249.3158 110.7397 16.25945445232012"
"3.0","GENERATED VIA SPACE-TRACK.ORG API","2025-05-21T04:08:36","18 SPCS","ATLAS 5 CENTAUR DEB","2018-079Z","EARTH","TEME","UTC","SGP4","2025-03-24T02:15:09.842688","1.86443226","0.48047080","12.7172","62.4944","269.2620","37.7015","0","U","44663","999","938","0.00000000000000","-0.00000130","0.0000000000000","27885.008","772.353","34904.805","8108.941","DEBRIS","","US","2018-10-17","AFETR","","4734515","288046287","0 ATLAS 5 CENTAUR DEB","1 44663U 18079Z   25083.09386392 -.00000130  00000-0  00000-0 0  9991","2 44663  12.7172  62.4944 4804708 269.2620  37.7015  1.86443226  9381"
"3.0","GENERATED VIA SPACE-TRACK.ORG API","2025-03-24T04:56:29","18 SPCS","SL-4 R/B","2025-026E","EARTH","TEME","UTC","SGP4","2025-03-24T03:23:25.709856","16.47297977","0.00402490","81.9679","166.0817","247.4325","195.2930","0","U","62906","999","740","0.00014981000000","0.15542753","-0.0000014596000","6524.598","87.416","172.723","120.202","ROCKET BODY","LARGE","CIS","2025-02-05","PKMTR","2025-03-24","4678820","283893068","0 SL-4 R/B","1 62906U 25026E   25083.14126979  .15542753 -14596-5  14981-3 0  9994","2 62906  81.9679 166.0817 0040249 247.4325 195.2930 16.47297977  7409"
"3.0","GENERATED VIA SPACE-TRACK.ORG API","2025-03-24T22:36:17","18 SPCS","OBJECT DL","2023-174DL","EARTH","TEME","UTC","SGP4","2025-03-24T03:59:41.709408","16.26928089","0.00128340","97.3835","171.6240","269.3392","90.6430","0","U","59478","999","5686","0.00368120000000","0.12390791","0.0000024646000","6578.945","88.510","209.254","192.367","UNKNOWN","SMALL","TBD","2023-11-11","AFWTR","2025-03-29","4679536","283939861","0 OBJECT DL","1 59478U 23174DL  25083.16645497  .12390791  24646-5  36812-2 0  9991","2 59478  97.3835 171.6240 0012834 269.3392  90.6430 16.26928089 56861"
"3.0","GENERATED VIA SPACE-TRACK.ORG API","2025-03-24T19:49:24","18 SPCS","CZ-6A DEB","2024-140AAC","EARTH","TEME","UTC","SGP4","2025-03-24T04:07:31.360800","15.82910247","0.00225160","89.2444","330.3664","227.4813","132.4565","0","U","61470","999","3005","0.03125300000000","0.08221756","0.0000000000000","6700.352","90.972","337.304","307.131","DEBRIS","SMALL","PRC","2024-08-06","TSC","2025-03-29","4679439","283936325","0 CZ-6A DEB","1 61470U 24140AAC 25083.17189075  .08221756  00000-0  31253-1 0  9991","2 61470  89.2444 330.3664 0022516 227.4813 132.4565 15.82910247 30052"
"3.0","GENERATED VIA SPACE-TRACK.ORG API","2025-03-24T14:06:17","18 SPCS","STARLINK-2561","2021-038BC","EARTH","TEME","UTC","SGP4","2025-03-24T07:08:25.385856","16.37317342","0.00022830","53.0368","92.9314","284.4181","196.4343","0","U","48403","999","21538","0.00099967000000","0.09974799","0.0000122970000","6551.085","87.949","174.446","171.455","PAYLOAD","LARGE","US","2021-05-04","AFETR","2025-03-24","4679119","283900139","0 STARLINK-2561","1 48403U 21038BC  25083.29751604  .09974799  12297-4  99967-3 0  9997","2 48403  53.0368  92.9314 0002283 284.4181 196.4343 16.37317342215383"
"3.0","GENERATED VIA SPACE-TRACK.ORG API","2025-03-25T18:41:00","18 SPCS","ARIANE 44LP DEB","1991-015M","EARTH","TEME","UTC","SGP4","2025-03-24T11:31:54.462144","2.95097831","0.67096130","5.4124","151.6997","40.0308","353.7531","0","U","27661","999","24055","0.00168630000000","0.00000976","0.0000000000000","20531.680","487.974","27929.508","377.582","DEBRIS","MEDIUM","FR","1991-03-02","FRGUI","","4680300","283994807","0 ARIANE 44LP DEB","1 27661U 91015M   25083.48049146  .00000976  00000-0  16863-2 0  9990","2 27661   5.4124 151.6997 6709613  40.0308 353.7531  2.95097831240552"
"3.0","GENERATED VIA SPACE-TRACK.ORG API","2025-03-24T20:56:17","18 SPCS","DRAGON FREEDOM-2 DEB","2024-178B","EARTH","TEME","UTC","SGP4","2025-03-24T19:39:13.875840","16.43181485","0.00287530","52.1202","2.6839","88.5024","14.3950","0","U","63331","999","96","0.00042883000000","0.19199630","0.0000125020000","6535.490","87.635","176.146","138.563","DEBRIS","MEDIUM","US","2024-09-28","AFETR","2025-03-25","4679447","283937846","0 DRAGON FREEDOM-2 DEB","1 63331U 24178B   25083.81891060  .19199630  12502-4  42883-3 0  9999","2 63331  52.1202   2.6839 0028753  88.5024  14.3950 16.43181485   968"
"3.0","GENERATED VIA SPACE-TRACK.ORG API","2025-03-24T21:46:17","18 SPCS","STARLINK-1925","2020-074T","EARTH","TEME","UTC","SGP4","2025-03-24T20:25:33.579840","16.48268014","0.00084080","53.0138","42.9240","144.1187","301.5151","0","U","46756","999","24465","0.00122390000000","0.84874051","0.0000125070000","6522.037","87.364","149.386","138.419","PAYLOAD","LARGE","US","2020-10-24","AFETR","2025-03-24","4679450","283937850","0 STARLINK-1925","1 46756U 20074T   25083.85108310  .84874051  12507-4  12239-2 0  9990","2 46756  53.0138  42.9240 0008408 144.1187 301.5151 16.48268014244654"
"3.0","GENERATED VIA SPACE-TRACK.ORG API","2025-03-24T22:36:17","18 SPCS","OBJECT C","2023-069C","EARTH","TEME","UTC","SGP4","2025-03-24T22:09:26.046432","16.46850411","0.00057260","40.9809","278.3067","242.8220","264.6483","0","U","56733","999","10430","0.00038256000000","0.18967566","0.0000078350000","6525.780","87.440","151.381","143.908","UNKNOWN","LARGE","PRC","2023-05-21","JSC","2025-03-25","4679587","283940548","0 OBJECT C","1 56733U 23069C   25083.92321813  .18967566  78350-5  38256-3 0  9994","2 56733  40.9809 278.3067 0005726 242.8220 264.6483 16.46850411104306"
"3.0","GENERATED VIA SPACE-TRACK.ORG API","2025-03-25T01:26:31","18 SPCS","STARLINK-2025","2021-009BM","EARTH","TEME","UTC","SGP4","2025-03-25T01:17:19.942656","16.45480461","0.00025130","53.0148","87.5079","320.0201","142.2026","0","U","47607","999","22959","0.00052924000000","0.18765101","0.0000125480000","6529.401","87.512","152.907","149.625","PAYLOAD","LARGE","US","2021-02-04","AFETR","2025-03-25","4679780","283945363","0 STARLINK-2025","1 47607U 21009BM  25084.05370304  .18765101  12548-4  52924-3 0  9995","2 47607  53.0148  87.5079 0002513 320.0201 142.2026 16.45480461229595"
"3.0","GENERATED VIA SPACE-TRACK.ORG API","2025-04-08T02:59:40","18 SPCS","CZ-3C DEB","2012-008AK","EARTH","TEME","UTC","SGP4","2025-03-25T02:59:51.742752","2.08076827","0.72621750","18.4629","332.1867","75.3844","348.9966","0","U","40869","999","8991","0.06303500000000","0.00001585","0.0000000000000","25917.078","692.052","38360.378","717.507","DEBRIS","MEDIUM","PRC","2012-02-24","XSC","","4693973","285070000","0 CZ-3C DEB","1 40869U 12008AK  25084.12490443  .00001585  00000-0  63035-1 0  9991","2 40869  18.4629 332.1867 7262175  75.3844 348.9966  2.08076827 89912"
"3.0","GENERATED VIA SPACE-TRACK.ORG API","2025-03-25T04:46:18","18 SPCS","STARLINK-1205","2020-012G","EARTH","TEME","UTC","SGP4","2025-03-25T04:26:41.904672","16.28370854","0.00034990","53.0185","89.4374","240.2389","203.4255","0","U","45184","999","28268","0.00125090000000","0.05031352","0.0000120270000","6575.059","88.432","199.224","194.623","PAYLOAD","LARGE","US","2020-02-17","AFETR","2025-03-25","4679793","283975140","0 STARLINK-1205","1 45184U 20012G   25084.18520723  .05031352  12027-4  12509-2 0  9998","2 45184  53.0185  89.4374 0003499 240.2389 203.4255 16.28370854282685"
"3.0","GENERATED VIA SPACE-TRACK.ORG API","2025-03-25T05:46:16","18 SPCS","STARLINK-2062","2021-012BC","EARTH","TEME","UTC","SGP4","2025-03-25T05:09:28.168704","16.45378035","0.00058030","53.0275","131.0139","337.6475","135.0023","0","U","47670","999","22766","0.00057222000000","0.21435079","0.0000126030000","6529.672","87.518","155.326","147.748","PAYLOAD","LARGE","US","2021-02-16","AFETR","2025-03-25","4679794","283975141","0 STARLINK-2062","1 47670U 21012BC  25084.21490936  .21435079  12603-4  57222-3 0  9991","2 47670  53.0275 131.0139 0005803 337.6475 135.0023 16.45378035227666"
"3.0","GENERATED VIA SPACE-TRACK.ORG API","2025-03-29T17:28:10","18 SPCS","ARIANE 1 DEB","1983-105C","EARTH","TEME","UTC","SGP4","2025-03-25T07:29:16.931328","3.97818702","0.58881470","8.2419","197.1948","142.7479","214.1896","0","U","48346","999","16435","0.00418150000000","0.00001106","0.0000000000000","16824.611","361.974","20353.055","539.898","DEBRIS","MEDIUM","FR","1983-10-19","FRGUI","","4684192","284337785","0 ARIANE 1 DEB","1 48346U 83105C   25084.31200152  .00001106  00000-0  41815-2 0  9994","2 48346   8.2419 197.1948 5888147 142.7479 214.1896  3.97818702164350"
